ZHOU ENLAI              
1 43156U 18008B   21257.32515140  .00001805  00000-0  10763-3 0  9998
2 43156  97.3982 319.4359 0015108  27.1357  37.0947 15.12312307201449
QUANTUTONG 1            
1 43158U 18008D   21257.43446941  .00002112  00000-0  12743-3 0  9996
2 43158  97.3915 317.9854 0014036  26.8438  38.5462 15.11713615201382
S-NET D                 
1 43186U 18014G   21257.04952366 -.00000131  00000-0 -63503-5 0  9997
2 43186  97.6692 163.0131 0011637 138.2387 221.9725 14.97136148197557
S-NET B                 
1 43187U 18014H   21256.91580365 -.00000127  00000-0 -60045-5 0  9992
2 43187  97.6690 162.8452 0011632 138.5820 221.6286 14.97135543197534
S-NET A                 
1 43188U 18014J   21256.91592196 -.00000125  00000-0 -58478-5 0  9993
2 43188  97.6694 162.8940 0011621 138.6900 221.5203 14.97134397197533
S-NET C                 
1 43189U 18014K   21257.18375910 -.00000146  00000-0 -76862-5 0  9997
2 43189  97.6688 163.0997 0011609 137.8927 222.3189 14.97133852196129
FENGMANIU-1 (FMN-1)     
1 43192U 18015A   21257.51010049  .00006078  00000-0  21953-3 0  9995
2 43192  97.4999  33.4210 0012911 289.5044 133.1179 15.28786740201193
SHAONIAN XING           
1 43199U 18015H   21257.50470663  .00004097  00000-0  15214-3 0  9995
2 43199  97.4792  30.2325 0014242 300.7424 123.6869 15.28055670201247
LUOJIA-1 01             
1 43485U 18048B   21257.35735261  .00000284  00000-0  47591-4 0  9998
2 43485  97.9583 337.8302 0011825  17.0905 343.0704 14.76899208177114
SURFSAT                 
1 43614U 18070B   21256.70264754  .00007388  00000-0  16649-3 0  9990
2 43614  93.0346 342.8046 0014735  31.2187 328.9941 15.43157775168279
CP7 (DAVE)              
1 43615U 18070C   21256.93221157  .00007497  00000-0  17081-3 0  9998
2 43615  93.0350 342.8445 0014935  30.4327 329.7793 15.42827888168291
ELFIN-B                 
1 43616U 18070D   21257.41916469  .00012291  00000-0  24804-3 0  9999
2 43616  93.0299 343.3578 0014031  25.2641 334.9301 15.46394319168515
ELFIN-A                 
1 43617U 18070E   21256.83167018  .00013118  00000-0  25985-3 0  9993
2 43617  93.0348 344.0458 0013381  24.5974 335.5920 15.46941476168442
CZ-4B R/B               
1 43656U 18081B   21256.32834605  .00000025  00000-0  25581-4 0  9991
2 43656  99.3692   3.3380 0208014 220.2489 138.3132 14.30478892150736
CUBEBEL-1 (BSUSAT-1)    
1 43666U 18083E   21257.54953442  .00002349  00000-0  11310-3 0  9995
2 43666  97.4506 284.7904 0013346 213.2540 274.3038 15.19677226159543
CHANGSHAGAOXIN (TY 4-01)
1 43669U 18083H   21257.54650064  .00002085  00000-0  10450-3 0  9993
2 43669  97.4423 281.5884 0009394 206.9746 281.1433 15.18434791159408
TEN-KOH                 
1 43677U 18084G   21256.73535960  .00000269  00000-0  33374-4 0  9993
2 43677  97.9306  20.0533 0017432 102.9550 257.3615 14.90520738156454
DIWATA-2B               
1 43678U 18084H   21257.39592891  .00000623  00000-0  67493-4 0  9996
2 43678  97.9349  23.1908 0011199 113.4126 246.8258 14.91791799156692
STARS-AO                
1 43679U 18084J   21257.32584026  .00000471  00000-0  51393-4 0  9994
2 43679  97.9390  24.4786 0010380 120.0216 240.2034 14.92601963156742
AUTCUBE 2               
1 43681U 18084K   21257.31454063  .00000504  00000-0  55213-4 0  9995
2 43681  97.9353  23.4747 0010775 114.8167 245.4174 14.92157712156665
IRVINE01                
1 43693U 18088D   21257.40757514  .00007148  00000-0  27147-3 0  9994
2 43693  85.0339 135.8152 0018239  59.6382 300.6662 15.26464741158003
ES'HAIL 2               
1 43700U 18090A   21256.80921916  .00000130  00000-0  00000-0 0  9998
2 43700   0.0239 151.3027 0002231  45.3137 113.4883  1.00271099 10255
FACSAT-1                
1 43721U 18096C   21257.32267587  .00004149  00000-0  14762-3 0  9999
2 43721  97.3801 333.7912 0015367 320.2165 106.0015 15.29430377155708
CENTAURI-2              
1 43722U 18096D   21256.68870272  .00005354  00000-0  18248-3 0  9991
2 43722  97.3822 334.1502 0014894 320.7605  39.2555 15.30699766155651
3CAT-1                  
1 43728U 18096K   21257.33196674  .00005348  00000-0  18055-3 0  9996
2 43728  97.3834 335.4105 0014980 322.1029 102.9323 15.31007954155783
INNOSAT-2               
1 43738U 18096V   21257.37511168  .00007962  00000-0  23874-3 0  9999
2 43738  97.3888 339.1762 0019174 315.6125 109.8329 15.34571712156039
REAKTOR HELLO WORLD     
1 43743U 18096AA  21256.86425831  .00003085  00000-0  11110-3 0  9991
2 43743  97.3803 333.7013 0015902 327.9044  32.1227 15.29229317155648
ELYSIUM STAR 2 & LFF    
1 43760U 18099C   21257.19397710  .00001398  00000-0  12781-3 0  9994
2 43760  97.6634 326.6998 0015043 109.7418 250.5428 14.96513970151786
2018-099D               
1 43761U 18099D   21256.74440210  .00000852  00000-0  82170-4 0  9993
2 43761  97.6585 325.4003 0015964 114.1685 246.1214 14.95353448151666
AISTECHSAT 2            
1 43768U 18099L   21256.99126055  .00000580  00000-0  58170-4 0  9996
2 43768  97.6549 324.4454 0012894 111.6374 248.6221 14.94975927151372
FOX-1CLIFF (AO-95)      
1 43770U 18099N   21256.97784191  .00000283  00000-0  30666-4 0  9998
2 43770  97.6578 325.1832 0015762 119.3568 240.9229 14.95421358151684
RANGE-A                 
1 43772U 18099Q   21257.12145178  .00000716  00000-0  69216-4 0  9998
2 43772  97.6667 326.4597 0015436 107.2744 253.0167 14.95749341151712
RANGE-B                 
1 43773U 18099R   21257.12430604  .00000589  00000-0  58522-4 0  9996
2 43773  97.6510 324.5585 0014962 107.2608 253.0251 14.95286962151694
2018-099T               
1 43775U 18099T   21257.12155504  .00000330  00000-0  35015-4 0  9997
2 43775  97.6580 325.5276 0015993 111.0019 249.2914 14.95348112151694
MOVE-II                 
1 43780U 18099Y   21257.16939752  .00000629  00000-0  60956-4 0  9995
2 43780  97.6603 326.0121 0014713 115.1035 245.1715 14.96087519151734
SNUSAT-2                
1 43782U 18099AA  21257.13031766  .00000816  00000-0  78380-4 0  9990
2 43782  97.6577 325.7041 0014210 106.2444 254.0342 14.95654884151728
SNUGLITE                
1 43784U 18099AC  21257.13101151  .00000926  00000-0  87937-4 0  9998
2 43784  97.6541 325.4085 0016490 113.2943 247.0016 14.95789432151740
ITASAT 1                
1 43786U 18099AE  21257.01386682  .00000985  00000-0  93414-4 0  9993
2 43786  97.6602 325.9580 0016686 112.7289 247.5698 14.95704906151721
KAZSCISAT-1             
1 43787U 18099AF  21257.44093554  .00000488  00000-0  48218-4 0  9994
2 43787  97.6513 325.5328 0015370 108.1632 252.1265 14.96245928151816
EAGLET-I                
1 43790U 18099AJ  21257.16150487  .00000285  00000-0  30421-4 0  9998
2 43790  97.6593 326.5498 0014911 114.7302 245.5473 14.96050034151475
ESEO                    
1 43792U 18099AL  21257.42862879  .00000043  00000-0  89776-5 0  9994
2 43792  97.6556 326.3303 0014732 111.5097 248.7696 14.95785717151560
CSIM-FD                 
1 43793U 18099AM  21256.79785977  .00001258  00000-0  11483-3 0  9994
2 43793  97.6588 326.2604 0014410 111.1848 249.0915 14.96748038151487
ASTROCAST 0.1           
1 43798U 18099AS  21256.96373284  .00000437  00000-0  43659-4 0  9991
2 43798  97.6601 326.5901 0013919  97.1160 263.1644 14.96294119151756
JY1SAT (JO-97)          
1 43803U 18099AX  21257.16321739  .00000404  00000-0  41064-4 0  9991
2 43803  97.6564 325.8468 0016507 111.6941 248.6040 14.95972738151753
SUOMI-100               
1 43804U 18099AY  21256.70234533  .00000214  00000-0  24114-4 0  9992
2 43804  97.6560 325.3552 0016486 113.3381 246.9577 14.95936990151691
AL-FARABI 2             
1 43805U 18099AZ  21256.84340480  .00001820  00000-0  16618-3 0  9990
2 43805  97.6572 325.7609 0016847 112.4304 354.7908 14.96188725151724
CENTAURI-1              
1 43809U 18099BD  21256.71469034  .00000173  00000-0  20476-4 0  9995
2 43809  97.6570 325.6843 0016445 114.6809 245.6127 14.95912078151392
CHOMPTT                 
1 43855U 18104G   21256.89173482  .00002578  00000-0  10356-3 0  9997
2 43855  85.0356 234.8654 0017132 171.4841 188.6696 15.24272794152562
DAVINCI                 
1 43857U 18104J   21256.72322088  .00007540  00000-0  28874-3 0  9997
2 43857  85.0309 234.5486 0013351 192.9387 167.1517 15.26279610152542
UWE-4                   
1 43880U 18111E   21256.68614264  .00001187  00000-0  10810-3 0  9998
2 43880  97.6784 162.8844 0012651 161.0249 199.1446 14.96975238148288
ZACUBE-2                
1 43907U 18111AH  21257.42159051  .00001492  00000-0  61560-4 0  9997
2 43907  97.2194 148.5263 0020853 343.2871 131.5886 15.25391140151192
MICRODRAGON             
1 43935U 19003D   21256.86879011  .00001965  00000-0  84711-4 0  9999
2 43935  97.1739 294.4686 0019514  75.9859 284.3547 15.23525336147565
AOBA VELOX-IV           
1 43940U 19003J   21256.93148140  .00006411  00000-0  23506-3 0  9990
2 43940  97.1705 297.6946 0023473  57.6225 302.7282 15.28052517147811
M6P                     
1 44109U 19018AF  21256.91920193  .00004335  00000-0  12977-3 0  9991
2 44109  97.4208 334.4429 0055823  39.0670 321.4583 15.33535019137010
SPOOQY-1                
1 44332U 98067QH  21257.20759443  .00227250  30633-4  65100-3 0  9999
2 44332  51.6275 184.2558 0002423 139.6079 220.5108 15.92750486128155
FORMOSAT 7-4            
1 44350U 19036M   21257.00274369  .00001378  00000-0  65869-4 0  9990
2 44350  23.9991 122.4008 0006088  27.4428 332.6396 15.07921074121740
PAINANI 1               
1 44365U 19037A   21256.90441937  .00007584  00000-0  18066-3 0  9993
2 44365  45.0040 124.4977 0003902 350.1650   9.9162 15.42214981124422
ACRUX 1                 
1 44369U 19037E   21256.90980532  .00016067  00000-0  29201-3 0  9995
2 44369  45.0050  96.8464 0008560 342.6491  17.4107 15.49390341124700
METEOR-M2 2             
1 44387U 19038A   21257.37601064 -.00000034  00000-0  43505-5 0  9991
2 44387  98.6783 216.0037 0001913  30.9694 329.1601 14.23690811114129
